[{"OBJECT_NAME":"DAMPE","OBJECT_ID":"2015-078A","EPOCH":"2026-03-09T23:55:00.527232","MEAN_MOTION":15.30502084,"ECCENTRICITY":0.00138005,"INCLINATION":97.4588,"RA_OF_ASC_NODE":73.9866,"ARG_OF_PERICENTER":70.6942,"MEAN_ANOMALY":289.579,"EPHEMERIS_TYPE":0,"CLASSIFICATION_TYPE":"U","NORAD_CAT_ID":41173,"ELEMENT_SET_NO":999,"REV_AT_EPOCH":56937,"BSTAR":9.1158173e-5,"MEAN_MOTION_DOT":2.617e-5,"MEAN_MOTION_DDOT":0},{"OBJECT_NAME":"STARLINK-31889","OBJECT_ID":"2024-097N","EPOCH":"2026-03-09T19:57:55.225152","MEAN_MOTION":15.2757221,"ECCENTRICITY":0.0001549,"INCLINATION":43.0011,"RA_OF_ASC_NODE":273.9797,"ARG_OF_PERICENTER":270.9288,"MEAN_ANOMALY":89.1386,"EPHEMERIS_TYPE":0,"CLASSIFICATION_TYPE":"U","NORAD_CAT_ID":59847,"ELEMENT_SET_NO":999,"REV_AT_EPOCH":10193,"BSTAR":5.134685e-6,"MEAN_MOTION_DOT":-1.21e-6,"MEAN_MOTION_DDOT":0}]
